S-NET A                 
1 43188U 18014J   26068.73984810  .00007428  00000+0  39378-3 0  9993
2 43188  97.5446 334.3608 0009236  10.8145 349.3285 15.15637105443691
MONITOR-2 (RS39S)       
1 57184U 23091U   26068.93684604  .00006188  00000+0  30772-3 0  9996
2 57184  97.5198 127.8703 0013055  98.0854 262.1862 15.17917968148893
