[{"OBJECT_NAME":"S-NET A","OBJECT_ID":"2018-014J","EPOCH":"2026-03-09T17:45:22.875840","MEAN_MOTION":15.15637105,"ECCENTRICITY":0.00092363,"INCLINATION":97.5446,"RA_OF_ASC_NODE":334.3608,"ARG_OF_PERICENTER":10.8145,"MEAN_ANOMALY":349.3285,"EPHEMERIS_TYPE":0,"CLASSIFICATION_TYPE":"U","NORAD_CAT_ID":43188,"ELEMENT_SET_NO":999,"REV_AT_EPOCH":44369,"BSTAR":0.00039378194,"MEAN_MOTION_DOT":7.428e-5,"MEAN_MOTION_DDOT":0},{"OBJECT_NAME":"MONITOR-2 (RS39S)","OBJECT_ID":"2023-091U","EPOCH":"2026-03-09T22:29:03.497856","MEAN_MOTION":15.17917968,"ECCENTRICITY":0.00130556,"INCLINATION":97.5198,"RA_OF_ASC_NODE":127.8703,"ARG_OF_PERICENTER":98.0854,"MEAN_ANOMALY":262.1862,"EPHEMERIS_TYPE":0,"CLASSIFICATION_TYPE":"U","NORAD_CAT_ID":57184,"ELEMENT_SET_NO":999,"REV_AT_EPOCH":14889,"BSTAR":0.00030772379,"MEAN_MOTION_DOT":6.188e-5,"MEAN_MOTION_DDOT":0}]
